[{"OBJECT_NAME":"CARTOSAT-2E","OBJECT_ID":"2017-036C","EPOCH":"2026-03-09T23:38:54.481056","MEAN_MOTION":15.1918097,"ECCENTRICITY":0.0002702,"INCLINATION":97.4396,"RA_OF_ASC_NODE":130.3613,"ARG_OF_PERICENTER":305.4379,"MEAN_ANOMALY":54.6603,"EPHEMERIS_TYPE":0,"CLASSIFICATION_TYPE":"U","NORAD_CAT_ID":42767,"ELEMENT_SET_NO":999,"REV_AT_EPOCH":48308,"BSTAR":-2.4911094e-5,"MEAN_MOTION_DOT":-5.91e-6,"MEAN_MOTION_DDOT":0},{"OBJECT_NAME":"IRIDIUM 5","OBJECT_ID":"1997-020D","EPOCH":"2026-03-09T18:04:20.752608","MEAN_MOTION":14.97634702,"ECCENTRICITY":0.00996159,"INCLINATION":86.3893,"RA_OF_ASC_NODE":320.9794,"ARG_OF_PERICENTER":262.9032,"MEAN_ANOMALY":96.0864,"EPHEMERIS_TYPE":0,"CLASSIFICATION_TYPE":"U","NORAD_CAT_ID":24795,"ELEMENT_SET_NO":999,"REV_AT_EPOCH":52516,"BSTAR":0.00037671843,"MEAN_MOTION_DOT":4.91e-5,"MEAN_MOTION_DDOT":0}]
